GLOBALSTAR M067 [+]     
1 32263U 07048A   24061.90892890 -.00000014  00000+0  61773-3 0  9995
2 32263  51.9757 337.8212 0001502  59.7035  16.6922 12.40639306751109
GLOBALSTAR M070 [+]     
1 32264U 07048B   24061.97399347 -.00000079  00000+0  13695-3 0  9993
2 32264  51.9742 127.0194 0000907 130.5655 286.0982 12.62287435755015
GLOBALSTAR M066 [+]     
1 32265U 07048C   24062.10130573 -.00000073  00000+0  17175-3 0  9995
2 32265  51.9705 348.6361 0000818  14.4651  88.0497 12.62256173757253
GLOBALSTAR M068 [-]     
1 32266U 07048D   24061.86565771 -.00000092  00000+0  63420-4 0  9996
2 32266  51.9892 302.0014 0001032 127.9779 313.6134 12.62780587757885
GLOBALSTAR M079 [+]     
1 37188U 10054A   24062.00169273 -.00000081  00000+0  12868-3 0  9996
2 37188  52.0028 137.1950 0000499  98.7329 317.8470 12.62267122617502
GLOBALSTAR M074 [+]     
1 37189U 10054B   24062.51348692 -.00000086  00000+0  10100-3 0  9999
2 37189  52.0008 135.0335 0000668 119.3217 343.6203 12.62265853617565
GLOBALSTAR M076 [+]     
1 37190U 10054C   24061.49088921 -.00000077  00000+0  14921-3 0  9998
2 37190  52.0021 138.2759 0000963  85.0496 287.9884 12.62275130617084
GLOBALSTAR M077 [+]     
1 37191U 10054D   24061.39854128 -.00000105  00000+0 -62057-5 0  9996
2 37191  52.0065  95.2764 0000525 118.3919 254.7620 12.62270078617441
